sat1_epoch day,sat1_ballistic coefficient,sat1_inclination,sat1_right ascension of the ascending node,sat1_eccentricity,sat1_argument of perigee,sat1_mean anomaly,sat1_mean motion,sat1_apogee,sat1_perigee,sat2_epoch day,sat2_ballistic coefficient,sat2_inclination,sat2_right ascension of the ascending node,sat2_eccentricity,sat2_argument of perigee,sat2_mean anomaly,sat2_mean motion,sat2_apogee,sat2_perigee,inclination difference,eccentricity difference,ascending node difference,argument of perigee difference,mean anomaly difference,mean motion difference,apogee difference,perigee difference,close_approach
356.33584425,5.349e-05,53.2179,319.4108,0.0001613,94.5174,265.6002,15.08854764,-6276.98560913791,-6277.015933289116,355.53114664,4.802e-05,53.16,84.2219,0.0001396,90.2332,269.8829,15.30170631,-6277.862774181572,-6277.88877446538,0.057900000000003615,2.1699999999999985e-05,235.1889,4.2841999999999985,-4.282700000000034,-0.21315867000000033,0.8771650436619893,0.8728411762640462,False
351.84025635,-3.45e-06,53.216,144.446,0.0001265,89.6686,270.4451,15.08843139,-6276.988397434341,-6277.012179361376,356.33584425,5.349e-05,53.2179,319.4108,0.0001613,94.5174,265.6002,15.08854764,-6276.98560913791,-6277.015933289116,-0.0018999999999991246,-3.479999999999998e-05,-174.9648,-4.848799999999997,4.844900000000052,-0.00011624999999959584,-0.002788296431390336,0.0037539277400355786,False
351.93827979,0.00015407,97.4265,65.7279,0.0006115,61.6811,298.5042,15.22640462,-6277.511865220247,-6277.626131335353,356.47623647,6e-07,88.989,336.021,0.0015816,149.1813,211.027,13.50906325,-6269.649608593836,-6269.969693905004,8.4375,-0.0009701000000000001,-270.2931,-87.50019999999999,87.47720000000004,1.7173413699999998,-7.862256626411181,-7.656437430349797,False
356.56521732,3.849e-05,97.4589,351.2663,0.0008078,271.0324,88.9979,15.07795351,-6276.880777492791,-6277.032713774544,356.44071472,8.882e-05,97.6314,64.9887,0.0005125,180.7464,179.3757,15.06915281,-6276.871917782045,-6276.968349644989,-0.17249999999999943,0.00029529999999999997,286.2776,90.286,-90.3778,0.008800700000000106,-0.008859710746037308,-0.0643641295555426,False
351.99459844,-4.084e-05,53.151,242.1529,6.11e-05,318.279,41.8164,15.30153269,-6277.869379964191,-6277.880759830649,356.41668981,-0.01436989,42.9993,259.2896,0.0001561,269.1415,267.0099,15.70291158,-6279.454518350176,-6279.483094388827,10.151700000000005,-9.5e-05,-17.13670000000002,49.13749999999999,-225.19350000000003,-0.40137889000000015,1.585138385985374,1.6023345581779722,False
356.33584425,5.349e-05,53.2179,319.4108,0.0001613,94.5174,265.6002,15.08854764,-6276.98560913791,-6277.015933289116,356.47623647,6e-07,88.989,336.021,0.0015816,149.1813,211.027,13.50906325,-6269.649608593836,-6269.969693905004,-35.771100000000004,-0.0014203,-16.61020000000002,-54.6639,54.573199999999986,1.5794843899999993,-7.336000544073613,-7.046239384112596,False
352.07113575,0.00017874,53.0537,281.1031,0.0001616,99.5356,260.5816,15.06378066,-6276.882560512126,-6276.912974353691,356.29146953,-1.42e-06,43.0012,89.3676,0.000119,261.2629,98.8088,15.25906325,-6277.691255639445,-6277.713460478227,10.052500000000002,4.259999999999999e-05,191.7355,-161.7273,161.77279999999996,-0.1952825899999997,0.8086951273198792,0.8004861245353823,False
352.11351083,-8.239e-05,53.0477,20.8598,0.0001358,84.7761,275.3383,15.06382176,-6276.885159538188,-6276.910717658066,355.8184647,-3.26e-06,69.9993,143.5112,0.0002773,270.3044,89.7797,14.98321322,-6276.534544571838,-6276.586920589549,-16.951600000000006,-0.00014150000000000002,-122.6514,-185.5283,185.5586,0.08060854000000006,-0.350614966350804,-0.32379706851679657,False
356.29146953,-1.42e-06,43.0012,89.3676,0.000119,261.2629,98.8088,15.25906325,-6277.691255639445,-6277.713460478227,356.33281986,-6.3e-07,2.9175,83.3475,0.0001405,178.5237,201.0497,1.00271702,-5797.986739505979,-5798.147733612506,40.0837,-2.1499999999999994e-05,6.020099999999999,82.73920000000001,-102.2409,14.25634623,-479.7045161334663,-479.56572686572053,False
356.48843705,8.455e-05,97.4602,52.7651,6.01e-05,30.172,329.9549,15.19305872,-6277.426715863042,-6277.437962695861,355.93031869,1.577e-05,53.1585,233.9991,0.0001417,88.8525,271.2655,15.69711298,-6279.4332931749595,-6279.4592395030795,44.301700000000004,-8.16e-05,-181.234,-58.68050000000001,58.689400000000035,-0.5040542600000002,2.006577311917681,2.021276807218783,False
356.33281986,-6.3e-07,2.9175,83.3475,0.0001405,178.5237,201.0497,1.00271702,-5797.986739505979,-5798.147733612506,356.48843705,8.455e-05,97.4602,52.7651,6.01e-05,30.172,329.9549,15.19305872,-6277.426715863042,-6277.437962695861,-94.5427,8.04e-05,30.5824,148.3517,-128.9052,-14.1903417,479.43997635706273,479.29022908335446,False
352.13605044,6.728e-05,53.2179,348.256,0.0001596,102.5006,257.6165,15.0881338,-6276.984049851829,-6277.014054954302,355.56281622,7.726e-05,53.1584,47.1405,0.0001142,86.2594,273.8541,15.39616165,-6278.246451222862,-6278.267633714362,0.059499999999999886,4.5400000000000006e-05,301.1155,16.241200000000006,-16.237600000000043,-0.3080278500000002,1.2624013710328654,1.2535787600600088,False
355.78029003,-9e-08,87.9066,7.3736,0.0001775,93.5935,266.5398,13.15547447,-6267.9862210489555,-6268.02278445048,355.70380159,2.02e-06,53.2217,352.1651,0.0001798,94.3583,265.7615,15.08838076,-6276.983176930769,-6277.016979302678,34.6849,-2.3000000000000017e-06,-344.7915,-0.7647999999999939,0.7783000000000015,-1.93290629,8.996955881813847,8.994194852198234,False
351.7175806,-2.7e-07,97.6559,349.986,0.0001011,95.1389,264.9951,15.01258385,-6276.674411460106,-6276.693482166061,356.22412751,-1.73e-06,0.014,9.8828,6.29e-05,49.2118,22.8735,1.00270502,-5798.02662771282,-5798.098703229504,97.6419,3.820000000000001e-05,340.1032,45.92710000000001,242.12159999999997,14.00987883,-478.64778374728576,-478.5947789365564,False
355.78029003,-9e-08,87.9066,7.3736,0.0001775,93.5935,266.5398,13.15547447,-6267.9862210489555,-6268.02278445048,355.67125254,9.74e-06,43.0053,88.9131,0.0001353,265.3288,94.74,15.02532259,-6276.724509169715,-6276.750016666369,44.9013,4.2199999999999996e-05,-81.5395,-171.7353,171.7998,-1.8698481200000003,8.738288120759535,8.727232215889671,False
352.07113575,0.00017874,53.0537,281.1031,0.0001616,99.5356,260.5816,15.06378066,-6276.882560512126,-6276.912974353691,355.78029003,-9e-08,87.9066,7.3736,0.0001775,93.5935,266.5398,13.15547447,-6267.9862210489555,-6268.02278445048,-34.8529,-1.5900000000000007e-05,273.7295,5.942099999999996,-5.9582000000000335,1.9083061900000011,-8.89633946317008,-8.890189903211649,False
351.93827979,0.00015407,97.4265,65.7279,0.0006115,61.6811,298.5042,15.22640462,-6277.511865220247,-6277.626131335353,356.1571023,4.112e-05,42.9996,280.2743,0.000107,262.3078,97.7643,15.02518245,-6276.726590617155,-6276.7467629683215,54.4269,0.0005045,-214.54639999999998,-200.62669999999997,200.73990000000003,0.20122216999999942,-0.785274603092148,-0.8793683670319297,False
356.36527789,6.96e-06,53.2177,119.2773,0.0001256,99.592,260.5214,15.08849296,-6276.988737782755,-6277.0123504460735,356.41668981,-0.01436989,42.9993,259.2896,0.0001561,269.1415,267.0099,15.70291158,-6279.454518350176,-6279.483094388827,10.218400000000003,-3.050000000000001e-05,-140.0123,-169.54950000000002,-6.488499999999988,-0.6144186200000004,2.465780567420552,2.47074394275387,False
356.4512657,2.371e-05,97.9304,127.8647,0.0011134,19.6975,340.4661,14.73017997,-6275.3759452302775,-6275.5886440565655,356.34371586,5.356e-05,53.162,50.3111,0.0001568,88.4832,271.6352,15.3959475,-6278.241640234297,-6278.270724695476,44.76840000000001,0.0009566,77.55359999999999,-68.78569999999999,68.83089999999999,-0.6657675300000001,2.8656950040194715,2.68208063891052,False
351.91667824,-0.01360305,42.9997,178.7084,0.0001753,272.2936,49.8229,15.70856288,-6279.474718908917,-6279.506802048293,356.22412751,-1.73e-06,0.014,9.8828,6.29e-05,49.2118,22.8735,1.00270502,-5798.02662771282,-5798.098703229504,42.985699999999994,0.00011240000000000001,168.8256,223.08180000000004,26.949399999999997,14.70585786,-481.44809119609636,-481.40809881878886,False
351.90098931,1.69e-06,53.2179,164.3443,0.0001522,90.2988,269.8178,15.08835025,-6276.985644591844,-6277.014258206638,355.67125254,9.74e-06,43.0053,88.9131,0.0001353,265.3288,94.74,15.02532259,-6276.724509169715,-6276.750016666369,10.212600000000002,1.6900000000000004e-05,75.4312,-175.03,175.07779999999997,0.06302765999999949,-0.261135422128973,-0.26424154026881297,False
356.33584425,5.349e-05,53.2179,319.4108,0.0001613,94.5174,265.6002,15.08854764,-6276.98560913791,-6277.015933289116,356.1571023,4.112e-05,42.9996,280.2743,0.000107,262.3078,97.7643,15.02518245,-6276.726590617155,-6276.7467629683215,10.2183,5.429999999999999e-05,39.13650000000001,-167.79039999999998,167.83589999999998,0.06336518999999896,-0.2590185207545801,-0.26917032079472847,False
351.90098931,1.69e-06,53.2179,164.3443,0.0001522,90.2988,269.8178,15.08835025,-6276.985644591844,-6277.014258206638,355.70380159,2.02e-06,53.2217,352.1651,0.0001798,94.3583,265.7615,15.08838076,-6276.983176930769,-6277.016979302678,-0.0037999999999982492,-2.7599999999999993e-05,-187.8208,-4.0595,4.056299999999965,-3.051000000020565e-05,-0.0024676610746610095,0.002721096039749682,False
351.45648521,-4.88e-05,53.0553,353.8145,0.0001429,101.3364,258.7786,15.06386283,-6276.884662477497,-6276.911556797763,356.33281986,-6.3e-07,2.9175,83.3475,0.0001405,178.5237,201.0497,1.00271702,-5797.986739505979,-5798.147733612506,50.137800000000006,2.400000000000004e-06,270.467,-77.1873,57.72889999999998,14.06114581,-478.8979229715178,-478.763823185257,False
351.93017684,4e-08,0.0216,292.7519,0.0002261,338.6121,30.8454,1.00274675,-5797.949023499868,-5798.208098574567,351.7175806,-2.7e-07,97.6559,349.986,0.0001011,95.1389,264.9951,15.01258385,-6276.674411460106,-6276.693482166061,-97.6343,0.000125,-57.23410000000001,243.4732,-234.14969999999997,-14.0098371,478.72538796023764,478.4853835914937,False
